IRIDIUM 155             
1 43573U 18061E   22134.46012506  .00000067  00000+0  16765-4 0  9995
2 43573  86.3934 321.3558 0002003  98.7770 261.3653 14.34217913199119
IRIDIUM 154             
1 43574U 18061F   22134.44110032  .00000060  00000+0  14371-4 0  9991
2 43574  86.3939 321.4258 0002091  81.8459 278.2974 14.34217034199169
IRIDIUM 163             
1 43575U 18061G   22134.49181926  .00000061  00000+0  14574-4 0  9993
2 43575  86.3935 321.3658 0002563  88.4820 271.6669 14.34219718199145
IRIDIUM 156             
1 43576U 18061H   22134.46646633  .00000054  00000+0  12057-4 0  9998
2 43576  86.3937 321.3817 0002365  95.8922 264.2543 14.34219468199130
IRIDIUM 164             
1 43577U 18061J   22134.44742745  .00000041  00000+0  76740-5 0  9994
2 43577  86.3938 321.4072 0002258  83.9681 276.1772 14.34217682199173
IRIDIUM 159             
1 43578U 18061K   22134.48547772  .00000050  00000+0  10799-4 0  9993
2 43578  86.3935 321.3595 0002154  84.1343 276.0098 14.34217557199141
IRIDIUM 180             
1 43922U 19002A   22134.41523852  .00000225  00000+0  73427-4 0  9999
2 43922  86.3969 258.2152 0002447  79.5334 280.6138 14.34215060174743
IRIDIUM 176             
1 43923U 19002B   22134.61702155  .00000786  00000+0  12077-3 0  9992
2 43923  86.6102 258.1652 0002363  96.9797 263.1689 14.72246607179355
IRIDIUM 168             
1 43924U 19002C   22134.61819312  .00000224  00000+0  72926-4 0  9994
2 43924  86.3972 258.1655 0002156  87.5732 272.5710 14.34216474174751
IRIDIUM 173             
1 43925U 19002D   22134.81478363  .00000116  00000+0  34413-4 0  9993
2 43925  86.3970 258.0328 0002130  91.9393 268.2046 14.34214688174771
IRIDIUM 169             
1 43926U 19002E   22134.49867440  .00000288  00000+0  87747-4 0  9994
2 43926  86.4187 289.7840 0003547 197.4017 162.7060 14.38606818175332
IRIDIUM 172             
1 43927U 19002F   22134.59917454  .00000225  00000+0  73385-4 0  9991
2 43927  86.3968 258.1266 0002253  87.1896 272.9557 14.34215146174749
IRIDIUM 175             
1 43928U 19002G   22134.61081345  .00000840  00000+0  12927-3 0  9993
2 43928  86.6106 257.9970 0002247  89.0504 271.0970 14.72245769179342
IRIDIUM 171             
1 43929U 19002H   22134.58013871  .00000226  00000+0  73543-4 0  9999
2 43929  86.3978 258.2749 0002118  88.1132 272.0307 14.34215812174736
IRIDIUM 170             
1 43930U 19002J   22134.41934685  .00000038  00000+0  21023-5 0  9996
2 43930  86.6101 258.2525 0002048  94.4417 265.7034 14.72246971179338
IRIDIUM 167             
1 43931U 19002K   22134.57380391  .00000225  00000+0  73277-4 0  9998
2 43931  86.3969 258.1464 0002258  81.7209 278.4243 14.34215349174735
